start=new Date('2021-10-07T00:00:00.000Z').valueOf();
sats=[{"CLASSIFICATION_TYPE":"U","BSTAR":"0.00007502700000","SEMIMAJOR_AXIS":"6925.359","INCLINATION":"53.0533","RA_OF_ASC_NODE":"106.4078","EPOCH":"2021-10-06T17:47:07.439712","ELEMENT_SET_NO":"999","APOAPSIS":"548.499","CENTER_NAME":"EARTH","GP_ID":"186423256","COUNTRY_CODE":"US","MEAN_MOTION_DDOT":"0.0000000000000","EPHEMERIS_TYPE":"0","OBJECT_NAME":"STARLINK-1419","LAUNCH_DATE":"2020-06-04","TLE_LINE1":"1 45694U 20035AP  21279.74105833  .00000836  00000-0  75027-4 0  9992","RCS_SIZE":"LARGE","NORAD_CAT_ID":"45694","REF_FRAME":"TEME","OBJECT_ID":"2020-035AP","ARG_OF_PERICENTER":"88.7964","MEAN_MOTION_DOT":"0.00000836","FILE":"3148521","REV_AT_EPOCH":"7545","MEAN_ELEMENT_THEORY":"SGP4","MEAN_ANOMALY":"271.3236","MEAN_MOTION":"15.06396698","TLE_LINE2":"2 45694  53.0533 106.4078 0001842  88.7964 271.3236 15.06396698 75450","PERIOD":"95.592","OBJECT_TYPE":"PAYLOAD","SITE":"AFETR","PERIAPSIS":"545.948","DECAY_DATE":null,"ECCENTRICITY":"0.00018420","TIME_SYSTEM":"UTC"},{"CENTER_NAME":"EARTH","GP_ID":"186423507","APOAPSIS":"548.477","COUNTRY_CODE":"US","EPHEMERIS_TYPE":"0","OBJECT_NAME":"STARLINK-1420","MEAN_MOTION_DDOT":"0.0000000000000","CLASSIFICATION_TYPE":"U","BSTAR":"0.00009333000000","INCLINATION":"53.0539","SEMIMAJOR_AXIS":"6925.358","EPOCH":"2021-10-06T17:39:09.876672","RA_OF_ASC_NODE":"86.4322","ELEMENT_SET_NO":"999","MEAN_MOTION":"15.06397074","TLE_LINE2":"2 45695  53.0539  86.4322 0001811  95.2347 264.8849 15.06397074 75748","SITE":"AFETR","OBJECT_TYPE":"PAYLOAD","PERIOD":"95.592","PERIAPSIS":"545.968","DECAY_DATE":null,"TIME_SYSTEM":"UTC","ECCENTRICITY":"0.00018110","TLE_LINE1":"1 45695U 20035AQ  21279.73553098  .00001109  00000-0  93330-4 0  9993","LAUNCH_DATE":"2020-06-04","RCS_SIZE":"LARGE","OBJECT_ID":"2020-035AQ","REF_FRAME":"TEME","NORAD_CAT_ID":"45695","MEAN_MOTION_DOT":"0.00001109","ARG_OF_PERICENTER":"95.2347","FILE":"3148521","MEAN_ANOMALY":"264.8849","MEAN_ELEMENT_THEORY":"SGP4","REV_AT_EPOCH":"7574"},{"MEAN_MOTION":"15.06396943","TLE_LINE2":"2 45696  53.0535 106.3920 0001404  77.7113 282.4033 15.06396943 75458","OBJECT_TYPE":"PAYLOAD","SITE":"AFETR","PERIOD":"95.592","PERIAPSIS":"546.251","DECAY_DATE":null,"ECCENTRICITY":"0.00014040","TIME_SYSTEM":"UTC","TLE_LINE1":"1 45696U 20035AR  21279.74474381  .00000914  00000-0  80245-4 0  9996","LAUNCH_DATE":"2020-06-04","RCS_SIZE":"LARGE","OBJECT_ID":"2020-035AR","NORAD_CAT_ID":"45696","REF_FRAME":"TEME","ARG_OF_PERICENTER":"77.7113","MEAN_MOTION_DOT":"0.00000914","FILE":"3148521","MEAN_ELEMENT_THEORY":"SGP4","MEAN_ANOMALY":"282.4033","REV_AT_EPOCH":"7545","CENTER_NAME":"EARTH","GP_ID":"186422256","APOAPSIS":"548.195","COUNTRY_CODE":"US","OBJECT_NAME":"STARLINK-1422","EPHEMERIS_TYPE":"0","MEAN_MOTION_DDOT":"0.0000000000000","BSTAR":"0.00008024500000","CLASSIFICATION_TYPE":"U","SEMIMAJOR_AXIS":"6925.358","INCLINATION":"53.0535","EPOCH":"2021-10-06T17:52:25.865184","RA_OF_ASC_NODE":"106.3920","ELEMENT_SET_NO":"999"},{"MEAN_MOTION":"15.06393170","TLE_LINE2":"2 45697  53.0546  85.9007 0002800  98.8369 261.2937 15.06393170 75768","SITE":"AFETR","OBJECT_TYPE":"PAYLOAD","PERIOD":"95.593","PERIAPSIS":"545.295","DECAY_DATE":null,"TIME_SYSTEM":"UTC","ECCENTRICITY":"0.00028000","TLE_LINE1":"1 45697U 20035AS  21279.85348998 -.00000700  00000-0 -28060-4 0  9995","LAUNCH_DATE":"2020-06-04","RCS_SIZE":"LARGE","OBJECT_ID":"2020-035AS","REF_FRAME":"TEME","NORAD_CAT_ID":"45697","MEAN_MOTION_DOT":"-0.00000700","ARG_OF_PERICENTER":"98.8369","FILE":"3148521","MEAN_ELEMENT_THEORY":"SGP4","MEAN_ANOMALY":"261.2937","REV_AT_EPOCH":"7576","GP_ID":"186422506","CENTER_NAME":"EARTH","APOAPSIS":"549.174","COUNTRY_CODE":"US","OBJECT_NAME":"STARLINK-1351","EPHEMERIS_TYPE":"0","MEAN_MOTION_DDOT":"0.0000000000000","BSTAR":"-0.00002806000000","CLASSIFICATION_TYPE":"U","SEMIMAJOR_AXIS":"6925.369","INCLINATION":"53.0546","EPOCH":"2021-10-06T20:29:01.534272","RA_OF_ASC_NODE":"85.9007","ELEMENT_SET_NO":"999"},{"OBJECT_ID":"2020-035AT","NORAD_CAT_ID":"45698","REF_FRAME":"TEME","MEAN_MOTION_DOT":"0.00001498","ARG_OF_PERICENTER":"91.7151","FILE":"3148521","MEAN_ELEMENT_THEORY":"SGP4","MEAN_ANOMALY":"268.4058","REV_AT_EPOCH":"7576","TLE_LINE1":"1 45698U 20035AT  21279.84242086  .00001498  00000-0  11944-3 0  9991","LAUNCH_DATE":"2020-06-04","RCS_SIZE":"LARGE","DECAY_DATE":null,"ECCENTRICITY":"0.00019200","TIME_SYSTEM":"UTC","TLE_LINE2":"2 45698  53.0562  85.9640 0001920  91.7151 268.4058 15.06396413 75769","MEAN_MOTION":"15.06396413","OBJECT_TYPE":"PAYLOAD","SITE":"AFETR","PERIOD":"95.592","PERIAPSIS":"545.895","SEMIMAJOR_AXIS":"6925.360","INCLINATION":"53.0562","EPOCH":"2021-10-06T20:13:05.162304","RA_OF_ASC_NODE":"85.9640","ELEMENT_SET_NO":"999","CLASSIFICATION_TYPE":"U","BSTAR":"0.00011944000000","COUNTRY_CODE":"US","EPHEMERIS_TYPE":"0","OBJECT_NAME":"STARLINK-1370","MEAN_MOTION_DDOT":"0.0000000000000","CENTER_NAME":"EARTH","GP_ID":"186423756","APOAPSIS":"548.554"},{"ELEMENT_SET_NO":"999","SEMIMAJOR_AXIS":"6925.381","INCLINATION":"53.0536","EPOCH":"2021-10-06T18:21:38.050272","RA_OF_ASC_NODE":"86.2975","BSTAR":"0.00009593200000","CLASSIFICATION_TYPE":"U","MEAN_MOTION_DDOT":"0.0000000000000","EPHEMERIS_TYPE":"0","OBJECT_NAME":"STARLINK-1398","COUNTRY_CODE":"US","APOAPSIS":"548.593","GP_ID":"186424007","CENTER_NAME":"EARTH","FILE":"3148521","REV_AT_EPOCH":"7574","MEAN_ELEMENT_THEORY":"SGP4","MEAN_ANOMALY":"264.6125","NORAD_CAT_ID":"45699","REF_FRAME":"TEME","OBJECT_ID":"2020-035AU","MEAN_MOTION_DOT":"0.00001147","ARG_OF_PERICENTER":"95.5086","LAUNCH_DATE":"2020-06-04","TLE_LINE1":"1 45699U 20035AU  21279.76502373  .00001147  00000-0  95932-4 0  9992","RCS_SIZE":"LARGE","TIME_SYSTEM":"UTC","ECCENTRICITY":"0.00019450","DECAY_DATE":null,"PERIAPSIS":"545.899","TLE_LINE2":"2 45699  53.0536  86.2975 0001945  95.5086 264.6125 15.06389337 75740","MEAN_MOTION":"15.06389337","PERIOD":"95.593","SITE":"AFETR","OBJECT_TYPE":"PAYLOAD"},{"DECAY_DATE":null,"TIME_SYSTEM":"UTC","ECCENTRICITY":"0.00017180","PERIOD":"95.593","OBJECT_TYPE":"PAYLOAD","SITE":"AFETR","MEAN_MOTION":"15.06392536","TLE_LINE2":"2 45700  53.0550  86.0235 0001718  93.4152 266.7033 15.06392536 75752","PERIAPSIS":"546.047","ARG_OF_PERICENTER":"93.4152","MEAN_MOTION_DOT":"0.00001140","NORAD_CAT_ID":"45700","REF_FRAME":"TEME","OBJECT_ID":"2020-035AV","REV_AT_EPOCH":"7575","MEAN_ANOMALY":"266.7033","MEAN_ELEMENT_THEORY":"SGP4","FILE":"3148521","RCS_SIZE":"LARGE","LAUNCH_DATE":"2020-06-04","TLE_LINE1":"1 45700U 20035AV  21279.82768435  .00001140  00000-0  95455-4 0  9998","COUNTRY_CODE":"US","MEAN_MOTION_DDOT":"0.0000000000000","EPHEMERIS_TYPE":"0","OBJECT_NAME":"STARLINK-1400","APOAPSIS":"548.426","GP_ID":"186422756","CENTER_NAME":"EARTH","RA_OF_ASC_NODE":"86.0235","EPOCH":"2021-10-06T19:51:51.927840","SEMIMAJOR_AXIS":"6925.371","INCLINATION":"53.0550","ELEMENT_SET_NO":"999","CLASSIFICATION_TYPE":"U","BSTAR":"0.00009545500000"},{"APOAPSIS":"548.564","CENTER_NAME":"EARTH","GP_ID":"186423005","MEAN_MOTION_DDOT":"0.0000000000000","EPHEMERIS_TYPE":"0","OBJECT_NAME":"STARLINK-1403","COUNTRY_CODE":"US","BSTAR":"0.00013789000000","CLASSIFICATION_TYPE":"U","ELEMENT_SET_NO":"999","INCLINATION":"53.0530","SEMIMAJOR_AXIS":"6925.379","RA_OF_ASC_NODE":"85.8865","EPOCH":"2021-10-06T20:34:20.468640","PERIAPSIS":"545.925","TLE_LINE2":"2 45701  53.0530  85.8865 0001905  95.7170 264.4037 15.06389942 75756","MEAN_MOTION":"15.06389942","PERIOD":"95.593","SITE":"AFETR","OBJECT_TYPE":"PAYLOAD","TIME_SYSTEM":"UTC","ECCENTRICITY":"0.00019050","DECAY_DATE":null,"LAUNCH_DATE":"2020-06-04","TLE_LINE1":"1 45701U 20035AW  21279.85718135  .00001772  00000-0  13789-3 0  9994","RCS_SIZE":"LARGE","FILE":"3148521","REV_AT_EPOCH":"7575","MEAN_ELEMENT_THEORY":"SGP4","MEAN_ANOMALY":"264.4037","NORAD_CAT_ID":"45701","REF_FRAME":"TEME","OBJECT_ID":"2020-035AW","MEAN_MOTION_DOT":"0.00001772","ARG_OF_PERICENTER":"95.7170"},{"ELEMENT_SET_NO":"999","EPOCH":"2021-10-06T20:07:46.729056","RA_OF_ASC_NODE":"85.9682","INCLINATION":"53.0543","SEMIMAJOR_AXIS":"6925.354","BSTAR":"0.00009037700000","CLASSIFICATION_TYPE":"U","OBJECT_NAME":"STARLINK-1405","EPHEMERIS_TYPE":"0","MEAN_MOTION_DDOT":"0.0000000000000","COUNTRY_CODE":"US","CENTER_NAME":"EARTH","GP_ID":"186423257","APOAPSIS":"548.741","MEAN_ANOMALY":"268.3800","MEAN_ELEMENT_THEORY":"SGP4","REV_AT_EPOCH":"7575","FILE":"3148521","MEAN_MOTION_DOT":"0.00001065","ARG_OF_PERICENTER":"91.7440","OBJECT_ID":"2020-035AX","NORAD_CAT_ID":"45702","REF_FRAME":"TEME","RCS_SIZE":"LARGE","TLE_LINE1":"1 45702U 20035AX  21279.83873529  .00001065  00000-0  90377-4 0  9996","LAUNCH_DATE":"2020-06-04","TIME_SYSTEM":"UTC","ECCENTRICITY":"0.00021980","DECAY_DATE":null,"PERIAPSIS":"545.697","OBJECT_TYPE":"PAYLOAD","SITE":"AFETR","PERIOD":"95.592","TLE_LINE2":"2 45702  53.0543  85.9682 0002198  91.7440 268.3800 15.06398201 75759","MEAN_MOTION":"15.06398201"},{"EPOCH":"2021-10-06T20:02:28.494528","RA_OF_ASC_NODE":"85.9908","INCLINATION":"53.0568","SEMIMAJOR_AXIS":"6925.359","ELEMENT_SET_NO":"999","BSTAR":"0.00002722400000","CLASSIFICATION_TYPE":"U","COUNTRY_CODE":"US","MEAN_MOTION_DDOT":"0.0000000000000","EPHEMERIS_TYPE":"0","OBJECT_NAME":"STARLINK-1407","APOAPSIS":"548.124","GP_ID":"186423508","CENTER_NAME":"EARTH","ARG_OF_PERICENTER":"97.4460","MEAN_MOTION_DOT":"0.00000124","REF_FRAME":"TEME","NORAD_CAT_ID":"45703","OBJECT_ID":"2020-035AY","REV_AT_EPOCH":"7575","MEAN_ELEMENT_THEORY":"SGP4","MEAN_ANOMALY":"262.6677","FILE":"3148521","RCS_SIZE":"LARGE","LAUNCH_DATE":"2020-06-04","TLE_LINE1":"1 45703U 20035AY  21279.83505202  .00000124  00000-0  27224-4 0  9993","DECAY_DATE":null,"ECCENTRICITY":"0.00013000","TIME_SYSTEM":"UTC","PERIOD":"95.592","SITE":"AFETR","OBJECT_TYPE":"PAYLOAD","TLE_LINE2":"2 45703  53.0568  85.9908 0001300  97.4460 262.6677 15.06396553 75754","MEAN_MOTION":"15.06396553","PERIAPSIS":"546.324"}];
